{
    "links": {
        "self": "http://www.neowsapp.com/rest/v1/neo/3150190?api_key=iIulBulltgU6a56xZRHN4H3l9WmuAYTsLGpBGhQ2"
    },
    "id": "3150190",
    "neo_reference_id": "3150190",
    "name": "(2003 DH6)",
    "designation": "2003 DH6",
    "nasa_jpl_url": "http://ssd.jpl.nasa.gov/sbdb.cgi?sstr=3150190",
    "absolute_magnitude_h": 24.3,
    "estimated_diameter": {
        "kilometers": {
            "estimated_diameter_min": 0.0366906138,
            "estimated_diameter_max": 0.0820427065
        },
        "meters": {
            "estimated_diameter_min": 36.6906137531,
            "estimated_diameter_max": 82.0427064882
        },
        "miles": {
            "estimated_diameter_min": 0.0227984834,
            "estimated_diameter_max": 0.0509789586
        },
        "feet": {
            "estimated_diameter_min": 120.3760332259,
            "estimated_diameter_max": 269.1689931548
        }
    },
    "is_potentially_hazardous_asteroid": false,
    "close_approach_data": [
        {
            "close_approach_date": "2003-03-01",
            "close_approach_date_full": "2003-Mar-01 20:40",
            "epoch_date_close_approach": 1046551200000,
            "relative_velocity": {
                "kilometers_per_second": "11.3764559009",
                "kilometers_per_hour": "40955.2412434063",
                "miles_per_hour": "25447.9942048266"
            },
            "miss_distance": {
                "astronomical": "0.0159295782",
                "lunar": "6.1966059198",
                "kilometers": "2383030.968718434",
                "miles": "1480746.7808210292"
            },
            "orbiting_body": "Earth"
        }
    ],
    "orbital_data": {
        "orbit_id": "15",
        "orbit_determination_date": "2017-04-06 09:14:20",
        "first_observation_date": "2003-02-23",
        "last_observation_date": "2003-03-03",
        "data_arc_in_days": 8,
        "observations_used": 105,
        "orbit_uncertainty": "7",
        "minimum_orbit_intersection": ".0154218",
        "jupiter_tisserand_invariant": "4.503",
        "epoch_osculation": "2459000.5",
        "eccentricity": ".3131190017694536",
        "semi_major_axis": "1.465171878372999",
        "inclination": "19.15657138372823",
        "ascending_node_longitude": "340.3428665848781",
        "orbital_period": "647.7855985078818",
        "perihelion_distance": "1.00639872239617",
        "perihelion_argument": "180.6867022335541",
        "aphelion_distance": "1.923945034349827",
        "perihelion_time": "2459181.309320327108",
        "mean_anomaly": "259.5171311809167",
        "mean_motion": ".5557394311161423",
        "equinox": "J2000",
        "orbit_class": {
            "orbit_class_type": "APO",
            "orbit_class_description": "Near-Earth asteroid orbits which cross the Earth’s orbit similar to that of 1862 Apollo",
            "orbit_class_range": "a (semi-major axis) > 1.0 AU; q (perihelion) < 1.017 AU"
        }
    },
    "is_sentry_object": false
}